[{"OBJECT_NAME":"STARLINK-2545","OBJECT_ID":"2021-036P","EPOCH":"2026-03-09T07:26:59.011008","MEAN_MOTION":15.30209224,"ECCENTRICITY":0.00010799,"INCLINATION":53.1594,"RA_OF_ASC_NODE":77.4373,"ARG_OF_PERICENTER":83.2666,"MEAN_ANOMALY":276.8457,"EPHEMERIS_TYPE":0,"CLASSIFICATION_TYPE":"U","NORAD_CAT_ID":48289,"ELEMENT_SET_NO":999,"REV_AT_EPOCH":26834,"BSTAR":1.7143398e-5,"MEAN_MOTION_DOT":1.49e-6,"MEAN_MOTION_DDOT":0},{"OBJECT_NAME":"OBJECT V","OBJECT_ID":"2023-085V","EPOCH":"2026-03-09T21:44:00.165408","MEAN_MOTION":15.30745852,"ECCENTRICITY":0.00069081,"INCLINATION":97.4843,"RA_OF_ASC_NODE":179.3833,"ARG_OF_PERICENTER":71.0503,"MEAN_ANOMALY":289.1485,"EPHEMERIS_TYPE":0,"CLASSIFICATION_TYPE":"U","NORAD_CAT_ID":57023,"ELEMENT_SET_NO":999,"REV_AT_EPOCH":15149,"BSTAR":0.00067780507,"MEAN_MOTION_DOT":0.00020109,"MEAN_MOTION_DDOT":0}]
